UBAKUSAT                
1 43467U 98067NQ  19262.14901427  .00012453  00000-0  13185-3 0  9998
2 43467  51.6360 230.7787 0003192  69.9701 290.1637 15.64563474 77342
BATSU-CS1 (IRAZU)       
1 43468U 98067NR  19262.13870874  .00036761  00000-0  26063-3 0  9996
2 43468  51.6341 218.6385 0002282  97.4582 262.6676 15.73566609177489
CUBERRT                 
1 43546U 98067NU  19261.29256341  .00009286  00000-0  92567-4 0  9991
2 43546  51.6369 234.8086 0004550 114.4803 245.6668 15.66472729 67346
TEMPEST-D               
1 43547U 98067NV  19262.13638418  .00003705  00000-0  53608-4 0  9998
2 43547  51.6377 242.7094 0006027 106.4945 253.6710 15.58746350 66994
RAINCUBE                
1 43548U 98067NW  19261.52130529  .00012320  00000-0  13752-3 0  9999
2 43548  51.6356 239.3198 0005979 113.5257 246.6366 15.63207942 67433
HALOSAT                 
1 43549U 98067NX  19261.33775674  .00011542  00000-0  12978-3 0  9999
2 43549  51.6367 240.3644 0005704 115.1516 245.0071 15.63096294 66965
ENDUROSAT ONE           
1 43551U 98067NZ  19261.38570129  .00017849  00000-0  18248-3 0  9997
2 43551  51.6361 236.9317 0006056 122.6269 237.5312 15.65095169 67427
EQUISAT                 
1 43552U 98067PA  19261.38465029  .00013794  00000-0  15187-3 0  9994
2 43552  51.6376 239.2099 0006396 122.2735 237.8880 15.63438166 67359
AEROCUBE 12A            
1 43556U 18046C   19261.69033211  .00001330  00000-0  59246-4 0  9993
2 43556  51.6433 335.2861 0008621  42.4123 317.7522 15.28915121 65630
AEROCUBE 12B            
1 43557U 18046D   19261.64682179  .00000006  00000-0  12891-4 0  9996
2 43557  51.6436 335.7407 0008773  42.1937 317.9717 15.28761477 65577
UITMSAT-1               
1 43589U 98067PD  19261.37595283  .00016472  00000-0  17787-3 0  9993
2 43589  51.6348 239.8255 0005639 127.7789 232.3717 15.63772569 63089
MAYA-1                  
1 43590U 98067PE  19261.24218005  .00016248  00000-0  17544-3 0  9997
2 43590  51.6350 240.4375 0005759 128.2211 231.9303 15.63784498 62993
BHUTAN-1                
1 43591U 98067PF  19261.16553828  .00016156  00000-0  17408-3 0  9991
2 43591  51.6362 240.7061 0005900 128.9466 231.2056 15.63843070 62988
SIRIUSSAT-1             
1 43595U 98067PG  19262.16143258  .00013142  00000-0  14796-3 0  9997
2 43595  51.6351 237.5779 0004335  93.4139 266.7351 15.62921485 62295
SIRIUSSAT-2             
1 43596U 98067PH  19262.13742958  .00013360  00000-0  15126-3 0  9997
2 43596  51.6362 238.2126 0004815  93.9770 266.1775 15.62756643 62286
TANUSHA-3               
1 43597U 98067PJ  19261.90256780  .00018864  00000-0  19432-3 0  9993
2 43597  51.6344 236.5648 0004362 103.8028 256.3453 15.64867868 62289
SURFSAT                 
1 43614U 18070B   19262.13947619  .00002065  00000-0  55631-4 0  9991
2 43614  93.0308  41.8251 0013780 316.6692  43.3477 15.37849682 56615
CP7 (DAVE)              
1 43615U 18070C   19261.36951467  .00002091  00000-0  56487-4 0  9991
2 43615  93.0309  41.5062 0014135 319.1775  40.8418 15.37753659 56490
ELFIN-B                 
1 43616U 18070D   19261.59708252  .00003237  00000-0  85193-4 0  9998
2 43616  93.0274  41.5077 0014852 321.5723  38.4472 15.38514335 56540
ELFIN-A                 
1 43617U 18070E   19261.58802742  .00003293  00000-0  86513-4 0  9996
2 43617  93.0330  41.7908 0013969 318.3135  41.7053 15.38574610 56542
CUBEBEL-1 (BSUSAT-1)    
1 43666U 18083E   19262.12451466  .00000760  00000-0  41027-4 0  9995
2 43666  97.5154 285.9583 0013965 223.4358 223.1582 15.17715355 49308
DEBRISSAT-2             
1 43680U 98067PR  19262.14277664  .00024980  00000-0  24099-3 0  9998
2 43680  51.6353 234.4653 0004053 114.3848 245.7571 15.66323325 71065
CICERO 10               
1 43690U 18088A   19261.81148571  .00000685  00000-0  30101-4 0  9999
2 43690  85.0347 257.8525 0013320 223.6893 136.3295 15.19766169 47323
IRVINE01                
1 43693U 18088D   19261.95371332  .00001677  00000-0  72188-4 0  9993
2 43693  85.0325 257.1701 0017039 207.0723 152.9632 15.21658126 47392
PROXIMA I               
1 43694U 18088E   19262.11379503  .00000685  00000-0  28520-4 0  9990
2 43694  85.0292 256.8670 0018545 198.1155 161.9428 15.21493149 47428
PROXIMA II              
1 43696U 18088G   19261.78379766  .00000694  00000-0  28938-4 0  9998
2 43696  85.0292 257.0866 0018533 199.3401 160.7140 15.21497373 47379
FACSAT-1                
1 43721U 18096C   19262.10469529  .00000836  00000-0  34786-4 0  9996
2 43721  97.4524 331.7940 0018024   9.7077 350.4506 15.26478077 44831
CENTAURI-2              
1 43722U 18096D   19261.74323486  .00001311  00000-0  52516-4 0  9997
2 43722  97.4527 331.5142 0018206  11.4680 348.6969 15.26745895 44779
INNOSAT-2               
1 43738U 18096V   19262.19737798  .00001735  00000-0  63887-4 0  9992
2 43738  97.4533 332.9016 0024636  18.7101 341.5038 15.28978142 44910
SIRION PATHFINDER-2     
1 43759U 18099B   19262.14188500  .00000466  00000-0  47648-4 0  9991
2 43759  97.7380 332.9616 0014607  18.4594 341.7154 14.95159665 43231
CORVUS-BC 4             
1 43767U 18099K   19261.91458345 -.00000254  00000-0 -18128-4 0  9999
2 43767  97.7366 332.4376 0012305  23.3275 336.8501 14.94602773 43194
MOVE-II                 
1 43780U 18099Y   19262.16321110  .00000373  00000-0  39244-4 0  9993
2 43780  97.7376 332.8882 0014226  29.8379 330.3650 14.95125952 43224
SPACEBEE-7              
1 43816U 18099BL  19262.15978782  .00000470  00000-0  47683-4 0  9999
2 43816  97.7391 333.0981 0013680  15.4959 344.6678 14.95466544 42796
SPACEBEE-5              
1 43817U 18099BM  19262.12965355  .00000670  00000-0  65212-4 0  9999
2 43817  97.7412 333.1884 0013203  15.5686 344.5938 14.95762065 42798
SPACEBEE-6              
1 43818U 18099BN  19262.14962009  .00000851  00000-0  81872-4 0  9996
2 43818  97.7399 333.1266 0013509  15.6280 344.5356 14.95561377 42941
SHIELDS 1               
1 43850U 18104B   19261.81225966  .00000041  00000-0  00000-0 0  9997
2 43850  85.0303 355.5685 0015332   2.2329 357.8978 15.21140982 42028
STF-1                   
1 43852U 18104D   19262.04209734  .00000041  00000-0  00000+0 0  9999
2 43852  85.0370 355.7352 0015808  13.2964 346.9004 15.20733917 42048
ZACUBE-2                
1 43907U 18111AH  19262.17616506  .00000416  00000-0  19792-4 0  9990
2 43907  97.2810 164.8351 0022575  29.0869 331.1621 15.24262066 40538
LUME 1                  
1 43908U 18111AJ  19261.96182206  .00000849  00000-0  37225-4 0  9993
2 43908  97.2809 164.6646 0022524  29.9122 330.3397 15.24466396 40507
AOBA VELOX-IV           
1 43940U 19003J   19262.12347072  .00001453  00000-0  62280-4 0  9994
2 43940  97.2681 317.2687 0026000 104.3506 280.2233 15.24037704 37166
CATSAT-2                
1 44029U 98067PV  19261.39032645  .00009294  00000-0  12891-3 0  9998
2 44029  51.6385 251.9972 0005098 122.5602 237.5883 15.57821488 35861
DELPHINI                
1 44030U 98067PW  19261.37537933  .00011481  00000-0  15655-3 0  9990
2 44030  51.6366 251.8753 0005063 118.8245 241.3256 15.58007394 35838
UNITE                   
1 44031U 98067PX  19261.54122817  .00006153  00000-0  91549-4 0  9998
2 44031  51.6382 252.2404 0003818 115.5845 244.5542 15.56617676 35843
TECHEDSAT 8             
1 44032U 98067PY  19262.15730751  .00029073  00000-0  31435-3 0  9992
2 44032  51.6365 243.5975 0004192 108.9741 251.1708 15.63346642 35992
CATSAT-1                
1 44033U 98067PZ  19261.39017206  .00009506  00000-0  13171-3 0  9997
2 44033  51.6387 251.9972 0004940 122.6404 237.5065 15.57817387 35779
RAAVANA-1               
1 44329U 98067QE  19261.44581446  .00007069  00000-0  11875-3 0  9994
2 44329  51.6399 257.6130 0007978  64.8484 295.3333 15.52948387 14517
UGUISU                  
1 44330U 98067QF  19261.44810774  .00007058  00000-0  11875-3 0  9993
2 44330  51.6398 257.6280 0007962  63.6457 296.5350 15.52907644 14494
NEPALISAT-1             
1 44331U 98067QG  19261.44372110  .00007067  00000-0  11858-3 0  9992
2 44331  51.6399 257.5996 0007989  65.9801 294.2025 15.52982820 14501
SPOOQY-1                
1 44332U 98067QH  19261.44158130  .00006760  00000-0  11366-3 0  9990
2 44332  51.6397 257.5835 0006773  67.9030 292.2679 15.53012986 14464
SPACEBEE-9              
1 44370U 19037F   19262.23610802  .00004868  00000-0  12857-3 0  9992
2 44370  45.0140 193.3423 0015240  21.1363 339.0151 15.39733177 12592
SPACEBEE-8              
1 44371U 19037G   19262.21904778  .00009889  00000-0  24655-3 0  9996
2 44371  45.0139 193.2163 0015955  23.4903 336.6731 15.40406044 12587
MOVE-IIB                
1 44398U 19038N   19261.83018215  .00001261  00000-0  77402-4 0  9990
2 44398  97.4971 222.3156 0025419 350.5214   9.5533 15.11690835 11386
SONATE                  
1 44400U 19038Q   19261.82877054  .00000468  00000-0  31169-4 0  9995
2 44400  97.4984 222.3216 0025102 348.5645  11.5012 15.11675667 11386
LUCKY-7                 
1 44406U 19038W   19262.08423815  .00000503  00000-0  33001-4 0  9999
2 44406  97.4983 222.5931 0024571 347.7005  12.3622 15.11868038 11413
BEESAT 9                
1 44412U 19038AC  19261.95440121  .00000740  00000-0  46852-4 0  9991
2 44412  97.4981 222.4584 0022923 354.3775   5.7195 15.11830588 11092
JAISAT-1                
1 44419U 19038F   19261.79733930  .00000641  00000-0  40607-4 0  9995
2 44419  97.4983 222.3622 0021773 355.1271   4.9744 15.12322631 11384
SWIATOWID               
1 44426U 98067QL  19261.92646114  .00011010  00000-0  18209-3 0  9998
2 44426  51.6408 255.5798 0005145  31.8876 328.2425 15.52743455 12061
KRAKSAT                 
1 44427U 98067QM  19262.08561035  .00004683  00000-0  83368-4 0  9992
2 44427  51.6424 254.9084 0004197  38.3902  69.9882 15.52208234 12123
VCC A                   
1 44428U 98067QN  19261.92579981  .00006419  00000-0  11022-3 0  9990
2 44428  51.6411 255.5760 0004127  47.9479 312.1862 15.52521745 12100
